start=new Date('2022-09-02T00:00:00.000Z').valueOf();
sats=[{"EPOCH":"2022-09-01T15:00:55.019520","INCLINATION":"70.0007","APOAPSIS":"574.444","EPHEMERIS_TYPE":"0","CENTER_NAME":"EARTH","PERIOD":"96.106","MEAN_MOTION":"14.98343273","MEAN_ANOMALY":"112.4264","SEMIMAJOR_AXIS":"6950.152","NORAD_CAT_ID":"49159","TLE_LINE2":"2 49159  70.0007 294.5594 0003492 247.6525 112.4264 14.98343273 54587","MEAN_MOTION_DDOT":"0.0000000000000","COUNTRY_CODE":"US","RA_OF_ASC_NODE":"294.5594","REF_FRAME":"TEME","GP_ID":"211505607","TIME_SYSTEM":"UTC","LAUNCH_DATE":"2021-09-14","OBJECT_TYPE":"PAYLOAD","ELEMENT_SET_NO":"999","RCS_SIZE":"LARGE","ECCENTRICITY":"0.00034920","BSTAR":"0.00000173980000","CLASSIFICATION_TYPE":"U","SITE":"AFWTR","REV_AT_EPOCH":"5458","TLE_LINE1":"1 49159U 21082AF  22244.62563680 -.00000072  00000-0  17398-5 0  9994","ARG_OF_PERICENTER":"247.6525","DECAY_DATE":null,"OBJECT_NAME":"STARLINK-3056","OBJECT_ID":"2021-082AF","MEAN_MOTION_DOT":"-0.00000072","FILE":"3554009","MEAN_ELEMENT_THEORY":"SGP4","PERIAPSIS":"569.590"},{"EPOCH":"2022-09-01T13:11:04.156224","INCLINATION":"69.9994","APOAPSIS":"574.448","CENTER_NAME":"EARTH","EPHEMERIS_TYPE":"0","PERIOD":"96.107","MEAN_ANOMALY":"100.2087","MEAN_MOTION":"14.98331961","SEMIMAJOR_AXIS":"6950.187","NORAD_CAT_ID":"49160","TLE_LINE2":"2 49160  69.9994 294.7482 0003448 259.8683 100.2087 14.98331961 54556","MEAN_MOTION_DDOT":"0.0000000000000","RA_OF_ASC_NODE":"294.7482","REF_FRAME":"TEME","COUNTRY_CODE":"US","GP_ID":"211473099","LAUNCH_DATE":"2021-09-14","TIME_SYSTEM":"UTC","OBJECT_TYPE":"PAYLOAD","ELEMENT_SET_NO":"999","RCS_SIZE":"LARGE","BSTAR":"0.00014127000000","ECCENTRICITY":"0.00034480","CLASSIFICATION_TYPE":"U","ARG_OF_PERICENTER":"259.8683","TLE_LINE1":"1 49160U 21082AG  22244.54935366  .00001593  00000-0  14127-3 0  9994","SITE":"AFWTR","REV_AT_EPOCH":"5455","DECAY_DATE":null,"OBJECT_NAME":"STARLINK-3095","OBJECT_ID":"2021-082AG","MEAN_MOTION_DOT":"0.00001593","PERIAPSIS":"569.655","MEAN_ELEMENT_THEORY":"SGP4","FILE":"3553664"},{"RCS_SIZE":"LARGE","CLASSIFICATION_TYPE":"U","BSTAR":"0.00010537000000","ECCENTRICITY":"0.00034380","ELEMENT_SET_NO":"999","FILE":"3554009","MEAN_ELEMENT_THEORY":"SGP4","PERIAPSIS":"569.644","MEAN_MOTION_DOT":"0.00001165","OBJECT_ID":"2021-082AH","DECAY_DATE":null,"REV_AT_EPOCH":"5456","SITE":"AFWTR","ARG_OF_PERICENTER":"248.8845","TLE_LINE1":"1 49161U 21082AH  22244.62088683  .00001165  00000-0  10537-3 0  9991","OBJECT_NAME":"STARLINK-3080","MEAN_MOTION":"14.98338016","MEAN_ANOMALY":"111.1947","NORAD_CAT_ID":"49161","SEMIMAJOR_AXIS":"6950.168","APOAPSIS":"574.423","EPOCH":"2022-09-01T14:54:04.622112","INCLINATION":"69.9993","PERIOD":"96.106","EPHEMERIS_TYPE":"0","CENTER_NAME":"EARTH","TIME_SYSTEM":"UTC","LAUNCH_DATE":"2021-09-14","GP_ID":"211504105","OBJECT_TYPE":"PAYLOAD","MEAN_MOTION_DDOT":"0.0000000000000","TLE_LINE2":"2 49161  69.9993 294.5617 0003438 248.8845 111.1947 14.98338016 54566","COUNTRY_CODE":"US","RA_OF_ASC_NODE":"294.5617","REF_FRAME":"TEME"},{"RCS_SIZE":"LARGE","CLASSIFICATION_TYPE":"U","ECCENTRICITY":"0.00028120","BSTAR":"0.00054654000000","ELEMENT_SET_NO":"999","MEAN_ELEMENT_THEORY":"SGP4","FILE":"3553671","PERIAPSIS":"570.165","OBJECT_ID":"2021-082AJ","MEAN_MOTION_DOT":"0.00006431","DECAY_DATE":null,"REV_AT_EPOCH":"5464","SITE":"AFWTR","TLE_LINE1":"1 49162U 21082AJ  22244.54460809  .00006431  00000-0  54654-3 0  9996","ARG_OF_PERICENTER":"248.6162","OBJECT_NAME":"STARLINK-3082","MEAN_MOTION":"14.98309986","MEAN_ANOMALY":"111.4697","NORAD_CAT_ID":"49162","SEMIMAJOR_AXIS":"6950.255","APOAPSIS":"574.074","EPOCH":"2022-09-01T13:04:14.138976","INCLINATION":"69.9997","PERIOD":"96.108","EPHEMERIS_TYPE":"0","CENTER_NAME":"EARTH","TIME_SYSTEM":"UTC","LAUNCH_DATE":"2021-09-14","GP_ID":"211473105","OBJECT_TYPE":"PAYLOAD","MEAN_MOTION_DDOT":"0.0000000000000","TLE_LINE2":"2 49162  69.9997 294.7553 0002812 248.6162 111.4697 14.98309986 54645","COUNTRY_CODE":"US","RA_OF_ASC_NODE":"294.7553","REF_FRAME":"TEME"},{"ELEMENT_SET_NO":"999","RCS_SIZE":"LARGE","CLASSIFICATION_TYPE":"U","BSTAR":"0.00011587000000","ECCENTRICITY":"0.00035610","DECAY_DATE":null,"REV_AT_EPOCH":"5511","SITE":"AFWTR","ARG_OF_PERICENTER":"256.5937","TLE_LINE1":"1 49163U 21082AK  22244.45055602  .00001290  00000-0  11587-3 0  9994","OBJECT_NAME":"STARLINK-3088","MEAN_ELEMENT_THEORY":"SGP4","FILE":"3553574","PERIAPSIS":"569.566","MEAN_MOTION_DOT":"0.00001290","OBJECT_ID":"2021-082AK","APOAPSIS":"574.516","EPOCH":"2022-09-01T10:48:48.040128","INCLINATION":"69.9988","PERIOD":"96.107","EPHEMERIS_TYPE":"0","CENTER_NAME":"EARTH","MEAN_MOTION":"14.98335416","MEAN_ANOMALY":"103.4825","NORAD_CAT_ID":"49163","SEMIMAJOR_AXIS":"6950.176","MEAN_MOTION_DDOT":"0.0000000000000","TLE_LINE2":"2 49163  69.9988 275.0005 0003561 256.5937 103.4825 14.98335416 55114","COUNTRY_CODE":"US","RA_OF_ASC_NODE":"275.0005","REF_FRAME":"TEME","TIME_SYSTEM":"UTC","LAUNCH_DATE":"2021-09-14","GP_ID":"211469427","OBJECT_TYPE":"PAYLOAD"},{"LAUNCH_DATE":"2021-09-14","TIME_SYSTEM":"UTC","GP_ID":"211504356","OBJECT_TYPE":"PAYLOAD","MEAN_MOTION_DDOT":"0.0000000000000","TLE_LINE2":"2 49164  69.9986 274.6826 0003317 256.6154 103.4635 14.98328565 55149","RA_OF_ASC_NODE":"274.6826","REF_FRAME":"TEME","COUNTRY_CODE":"US","MEAN_ANOMALY":"103.4635","MEAN_MOTION":"14.98328565","NORAD_CAT_ID":"49164","SEMIMAJOR_AXIS":"6950.197","APOAPSIS":"574.368","INCLINATION":"69.9986","EPOCH":"2022-09-01T13:47:19.259808","PERIOD":"96.107","CENTER_NAME":"EARTH","EPHEMERIS_TYPE":"0","PERIAPSIS":"569.757","MEAN_ELEMENT_THEORY":"SGP4","FILE":"3554009","MEAN_MOTION_DOT":"0.00001003","OBJECT_ID":"2021-082AL","DECAY_DATE":null,"ARG_OF_PERICENTER":"256.6154","TLE_LINE1":"1 49164U 21082AL  22244.57452847  .00001003  00000-0  91832-4 0  9994","REV_AT_EPOCH":"5514","SITE":"AFWTR","OBJECT_NAME":"STARLINK-3106","RCS_SIZE":"LARGE","CLASSIFICATION_TYPE":"U","BSTAR":"0.00009183200000","ECCENTRICITY":"0.00033170","ELEMENT_SET_NO":"999"},{"MEAN_ANOMALY":"108.1858","MEAN_MOTION":"14.98338006","SEMIMAJOR_AXIS":"6950.168","NORAD_CAT_ID":"49165","EPOCH":"2022-09-01T16:09:36.043776","INCLINATION":"69.9997","APOAPSIS":"574.416","CENTER_NAME":"EARTH","EPHEMERIS_TYPE":"0","PERIOD":"96.106","GP_ID":"211504606","LAUNCH_DATE":"2021-09-14","TIME_SYSTEM":"UTC","OBJECT_TYPE":"PAYLOAD","TLE_LINE2":"2 49165  69.9997 294.4315 0003429 251.8928 108.1858 14.98338006 54694","MEAN_MOTION_DDOT":"0.0000000000000","RA_OF_ASC_NODE":"294.4315","REF_FRAME":"TEME","COUNTRY_CODE":"US","RCS_SIZE":"LARGE","BSTAR":"-0.00001836400000","ECCENTRICITY":"0.00034290","CLASSIFICATION_TYPE":"U","ELEMENT_SET_NO":"999","MEAN_MOTION_DOT":"-0.00000312","OBJECT_ID":"2021-082AM","PERIAPSIS":"569.650","MEAN_ELEMENT_THEORY":"SGP4","FILE":"3554009","ARG_OF_PERICENTER":"251.8928","TLE_LINE1":"1 49165U 21082AM  22244.67333384 -.00000312  00000-0 -18364-4 0  9993","REV_AT_EPOCH":"5469","SITE":"AFWTR","DECAY_DATE":null,"OBJECT_NAME":"STARLINK-3052"},{"MEAN_ELEMENT_THEORY":"SGP4","FILE":"3553574","PERIAPSIS":"570.027","OBJECT_ID":"2021-082AN","MEAN_MOTION_DOT":"-0.00000736","DECAY_DATE":null,"SITE":"AFWTR","REV_AT_EPOCH":"5515","TLE_LINE1":"1 49166U 21082AN  22244.44577877 -.00000736  00000-0 -53917-4 0  9999","ARG_OF_PERICENTER":"254.8129","OBJECT_NAME":"STARLINK-3089","RCS_SIZE":"LARGE","CLASSIFICATION_TYPE":"U","BSTAR":"-0.00005391700000","ECCENTRICITY":"0.00029020","ELEMENT_SET_NO":"999","TIME_SYSTEM":"UTC","LAUNCH_DATE":"2021-09-14","GP_ID":"211469176","OBJECT_TYPE":"PAYLOAD","MEAN_MOTION_DDOT":"0.0000000000000","TLE_LINE2":"2 49166  69.9982 274.9969 0002902 254.8129 105.2709 14.98334543 55155","COUNTRY_CODE":"US","RA_OF_ASC_NODE":"274.9969","REF_FRAME":"TEME","MEAN_MOTION":"14.98334543","MEAN_ANOMALY":"105.2709","NORAD_CAT_ID":"49166","SEMIMAJOR_AXIS":"6950.179","APOAPSIS":"574.061","INCLINATION":"69.9982","EPOCH":"2022-09-01T10:41:55.285728","PERIOD":"96.107","EPHEMERIS_TYPE":"0","CENTER_NAME":"EARTH"},{"INCLINATION":"69.9993","EPOCH":"2022-09-01T16:02:44.359872","APOAPSIS":"574.465","CENTER_NAME":"EARTH","EPHEMERIS_TYPE":"0","PERIOD":"96.107","MEAN_ANOMALY":"117.7799","MEAN_MOTION":"14.98332869","SEMIMAJOR_AXIS":"6950.184","NORAD_CAT_ID":"49167","TLE_LINE2":"2 49167  69.9993 294.4467 0003476 242.3008 117.7799 14.98332869 54697","MEAN_MOTION_DDOT":"0.0000000000000","RA_OF_ASC_NODE":"294.4467","REF_FRAME":"TEME","COUNTRY_CODE":"US","GP_ID":"211505608","LAUNCH_DATE":"2021-09-14","TIME_SYSTEM":"UTC","OBJECT_TYPE":"PAYLOAD","ELEMENT_SET_NO":"999","RCS_SIZE":"LARGE","BSTAR":"0.00012468000000","ECCENTRICITY":"0.00034760","CLASSIFICATION_TYPE":"U","ARG_OF_PERICENTER":"242.3008","TLE_LINE1":"1 49167U 21082AP  22244.66856898  .00001395  00000-0  12468-3 0  9992","REV_AT_EPOCH":"5469","SITE":"AFWTR","DECAY_DATE":null,"OBJECT_NAME":"STARLINK-3054","MEAN_MOTION_DOT":"0.00001395","OBJECT_ID":"2021-082AP","PERIAPSIS":"569.633","FILE":"3554009","MEAN_ELEMENT_THEORY":"SGP4"},{"RCS_SIZE":"LARGE","CLASSIFICATION_TYPE":"U","BSTAR":"-0.00002767500000","ECCENTRICITY":"0.00032540","ELEMENT_SET_NO":"999","PERIAPSIS":"569.781","FILE":"3554009","MEAN_ELEMENT_THEORY":"SGP4","OBJECT_ID":"2021-082AQ","MEAN_MOTION_DOT":"-0.00000423","DECAY_DATE":null,"TLE_LINE1":"1 49168U 21082AQ  22244.56499600 -.00000423  00000-0 -27675-4 0  9996","ARG_OF_PERICENTER":"258.1388","REV_AT_EPOCH":"5517","SITE":"AFWTR","OBJECT_NAME":"STARLINK-3101","MEAN_ANOMALY":"101.9406","MEAN_MOTION":"14.98335030","NORAD_CAT_ID":"49168","SEMIMAJOR_AXIS":"6950.177","APOAPSIS":"574.304","INCLINATION":"69.9983","EPOCH":"2022-09-01T13:33:35.654400","PERIOD":"96.107","CENTER_NAME":"EARTH","EPHEMERIS_TYPE":"0","LAUNCH_DATE":"2021-09-14","TIME_SYSTEM":"UTC","GP_ID":"211503856","OBJECT_TYPE":"PAYLOAD","MEAN_MOTION_DDOT":"0.0000000000000","TLE_LINE2":"2 49168  69.9983 274.7074 0003254 258.1388 101.9406 14.98335030 55179","RA_OF_ASC_NODE":"274.7074","REF_FRAME":"TEME","COUNTRY_CODE":"US"}];
